[{"OBJECT_NAME":"YAOGAN-43 01F","OBJECT_ID":"2024-148F","EPOCH":"2026-03-10T00:23:08.877408","MEAN_MOTION":15.29824616,"ECCENTRICITY":0.00057048,"INCLINATION":34.9925,"RA_OF_ASC_NODE":59.8891,"ARG_OF_PERICENTER":18.4862,"MEAN_ANOMALY":341.6062,"EPHEMERIS_TYPE":0,"CLASSIFICATION_TYPE":"U","NORAD_CAT_ID":60463,"ELEMENT_SET_NO":999,"REV_AT_EPOCH":8707,"BSTAR":0.00058388219,"MEAN_MOTION_DOT":0.00017308,"MEAN_MOTION_DDOT":0},{"OBJECT_NAME":"STARLINK-34596","OBJECT_ID":"2025-144J","EPOCH":"2026-03-09T21:39:20.340000","MEAN_MOTION":15.30205408,"ECCENTRICITY":0.0001675,"INCLINATION":53.1598,"RA_OF_ASC_NODE":180.1105,"ARG_OF_PERICENTER":49.236,"MEAN_ANOMALY":310.8786,"EPHEMERIS_TYPE":0,"CLASSIFICATION_TYPE":"U","NORAD_CAT_ID":64732,"ELEMENT_SET_NO":999,"REV_AT_EPOCH":3974,"BSTAR":0.0014048153,"MEAN_MOTION_DOT":0.00041487,"MEAN_MOTION_DDOT":0}]
